YOTSUBA-KULOVER         
1 65941U 98067XN  26066.99812784  .00263045  00000+0  13632-2 0  9999
2 65941  51.6208  66.0612 0005751  56.1865 303.9683 15.79713118 23234
E-KAGAKU-1              
1 65943U 98067XQ  26067.00221874  .00253093  00000+0  13328-2 0  9992
2 65943  51.6232  66.1066 0006105  62.9962 297.1662 15.79385798 23234
HRC MONOBLOCK CAMERA    
1 66052U 98067XR  26067.03704198  .00069622  00000+0  78141-3 0  9990
2 66052  51.6270  73.8727 0003626  83.9144 276.2263 15.61987502 22132
HTV-X1                  
1 66174U 25241A   26066.77087839  .00014056  00000+0  26707-3 0  9997
2 66174  51.6320  81.8427 0008117 167.9196 192.1989 15.48514260554479
SZ-21 MODULE            
1 66515U 25246C   26066.46287831  .00050102  00000+0  43323-3 0  9996
2 66515  41.4737 217.0662 0001429 294.3949  65.6744 15.68341086 17722
SHENZHOU-22             
1 66645U 25272A   26067.05173755  .00028649  00000+0  33952-3 0  9992
2 66645  41.4663 218.1268 0007000 262.9146  97.0897 15.60561665268959
SOYUZ-MS 28             
1 66664U 25275A   26066.77087839  .00014056  00000+0  26707-3 0  9998
2 66664  51.6320  81.8427 0008117 167.9196 192.1989 15.48514260554529
DUPLEX                  
1 66906U 98067XS  26066.27423626  .00039972  00000+0  56716-3 0  9996
2 66906  51.6285  81.5298 0002224 101.9633 258.1608 15.56027322 14752
ISS OBJECT XT           
1 66907U 98067XT  26067.05417197  .00195859  00000+0  16503-2 0  9996
2 66907  51.6247  73.9749 0004744  67.3320 292.8178 15.68661540 14929
ISS OBJECT XU           
1 66908U 98067XU  26067.05248897  .00192750  00000+0  16177-2 0  9990
2 66908  51.6241  73.9603 0004942  70.0381 290.1148 15.68767793 14926
SILVERSAT               
1 66909U 98067XV  26067.05663743  .00245859  00000+0  18281-2 0  9999
2 66909  51.6251  73.2368 0005588  66.1034 294.0549 15.71508210 14937
ISS OBJECT XW           
1 66910U 98067XW  26067.04838043  .00174342  00000+0  15106-2 0  9998
2 66910  51.6238  73.9282 0005095  75.6439 284.5122 15.68050073 14928
